WORLDVIEW-3 (WV-3)      
1 40115U 14048A   26062.17139044  .00001209  00000+0  14870-3 0  9997
2 40115  97.8646 138.4503 0000633  15.1981 344.9253 14.84816366626173
GAOFEN-2                
1 40118U 14049A   26062.22580912  .00000804  00000+0  11138-3 0  9995
2 40118  98.0245 126.4859 0006567 207.5844 152.5020 14.80759815623557
YAOGAN-21               
1 40143U 14053A   26062.16889745  .00004992  00000+0  20366-3 0  9992
2 40143  97.1632 106.9928 0010109 105.6651 254.5703 15.24814140638791
YAOGAN-22               
1 40275U 14063A   26062.01833141 -.00000042  00000+0  11666-4 0  9999
2 40275 100.7523 211.6007 0006731  72.1277 288.0568 13.15526740545856
ASNARO                  
1 40298U 14070A   26062.20679262  .00010254  00000+0  48384-3 0  9996
2 40298  97.3534 141.1381 0007088 162.4192 197.7290 15.19622940627912
YAOGAN-24               
1 40310U 14072A   26062.20378638  .00001224  00000+0  18432-3 0  9994
2 40310  98.1288 198.7560 0012079 240.9368 119.0632 14.76212540608089
CBERS 4                 
1 40336U 14079A   26062.16080934 -.00000036  00000+0  20465-5 0  9995
2 40336  98.3503 122.3829 0000809  54.2828 305.8433 14.35410103588749
YAOGAN-26               
1 40362U 14088A   26062.18787683  .00033833  00000+0  77020-3 0  9998
2 40362  97.0660  65.2056 0007353  80.4025 279.8053 15.42858920621339
SMAP                    
1 40376U 15003A   26062.16525554  .00000665  00000+0  13796-3 0  9993
2 40376  98.1310  70.7452 0001218 112.8294 247.3037 14.63328625592112
KOMPSAT-3A              
1 40536U 15014A   26062.19694192  .00025651  00000+0  44927-3 0  9993
2 40536  97.6860  46.2802 0062837 201.1013 158.7643 15.48337677605389
SENTINEL-2A             
1 40697U 15028A   26056.18000490  .00000159  00000+0  76852-4 0  9999
2 40697  98.5024 132.8928 0054368 194.7437 165.2162 14.30192923557712
GAOFEN-8                
1 40701U 15030A   26062.19474594  .00012154  00000+0  28570-3 0  9997
2 40701  97.6923 249.4823 0009303 211.6957 148.3730 15.42116337595095
CARBONITE 1 (CBNT-1)    
1 40718U 15032D   26062.14504657  .00001258  00000+0  16014-3 0  9999
2 40718  97.6450 244.6939 0013242 284.4089  75.5655 14.83178887573628
YAOGAN-27               
1 40878U 15040A   26062.20747494 -.00000306  00000+0 -69429-3 0  9993
2 40878 100.1090  53.2203 0008867  97.8918 262.3202 13.16063938503720
GAOFEN-9 01             
1 40894U 15047A   26062.18285988  .00001289  00000+0  16513-3 0  9995
2 40894  97.6427 102.6334 0028684 126.2153 234.1719 14.82661387564489
YAOGAN-28               
1 41026U 15064A   26062.20899611  .00011450  00000+0  44896-3 0  9995
2 41026  97.2887 202.8522 0010715 199.5986 160.4843 15.25862958574517
YAOGAN-29               
1 41038U 15069A   26062.18219016  .00001052  00000+0  13621-3 0  9994
2 41038  98.0153  90.5944 0002287  48.0257 312.1151 14.82988877554910
