[{"OBJECT_NAME":"WORLDVIEW-3 (WV-3)","OBJECT_ID":"2014-048A","EPOCH":"2026-03-03T04:06:48.134016","MEAN_MOTION":14.84816366,"ECCENTRICITY":6.33e-5,"INCLINATION":97.8646,"RA_OF_ASC_NODE":138.4503,"ARG_OF_PERICENTER":15.1981,"MEAN_ANOMALY":344.9253,"EPHEMERIS_TYPE":0,"CLASSIFICATION_TYPE":"U","NORAD_CAT_ID":40115,"ELEMENT_SET_NO":999,"REV_AT_EPOCH":62617,"BSTAR":0.0001487,"MEAN_MOTION_DOT":1.209e-5,"MEAN_MOTION_DDOT":0},{"OBJECT_NAME":"GAOFEN-2","OBJECT_ID":"2014-049A","EPOCH":"2026-03-03T05:25:09.907968","MEAN_MOTION":14.80759815,"ECCENTRICITY":0.0006567,"INCLINATION":98.0245,"RA_OF_ASC_NODE":126.4859,"ARG_OF_PERICENTER":207.5844,"MEAN_ANOMALY":152.502,"EPHEMERIS_TYPE":0,"CLASSIFICATION_TYPE":"U","NORAD_CAT_ID":40118,"ELEMENT_SET_NO":999,"REV_AT_EPOCH":62355,"BSTAR":0.00011138,"MEAN_MOTION_DOT":8.04e-6,"MEAN_MOTION_DDOT":0},{"OBJECT_NAME":"YAOGAN-21","OBJECT_ID":"2014-053A","EPOCH":"2026-03-03T04:03:12.739680","MEAN_MOTION":15.2481414,"ECCENTRICITY":0.0010109,"INCLINATION":97.1632,"RA_OF_ASC_NODE":106.9928,"ARG_OF_PERICENTER":105.6651,"MEAN_ANOMALY":254.5703,"EPHEMERIS_TYPE":0,"CLASSIFICATION_TYPE":"U","NORAD_CAT_ID":40143,"ELEMENT_SET_NO":999,"REV_AT_EPOCH":63879,"BSTAR":0.00020366,"MEAN_MOTION_DOT":4.992e-5,"MEAN_MOTION_DDOT":0},{"OBJECT_NAME":"YAOGAN-22","OBJECT_ID":"2014-063A","EPOCH":"2026-03-03T00:26:23.833824","MEAN_MOTION":13.1552674,"ECCENTRICITY":0.0006731,"INCLINATION":100.7523,"RA_OF_ASC_NODE":211.6007,"ARG_OF_PERICENTER":72.1277,"MEAN_ANOMALY":288.0568,"EPHEMERIS_TYPE":0,"CLASSIFICATION_TYPE":"U","NORAD_CAT_ID":40275,"ELEMENT_SET_NO":999,"REV_AT_EPOCH":54585,"BSTAR":1.1666e-5,"MEAN_MOTION_DOT":-4.2e-7,"MEAN_MOTION_DDOT":0},{"OBJECT_NAME":"ASNARO","OBJECT_ID":"2014-070A","EPOCH":"2026-03-03T04:57:46.882368","MEAN_MOTION":15.1962294,"ECCENTRICITY":0.0007088,"INCLINATION":97.3534,"RA_OF_ASC_NODE":141.1381,"ARG_OF_PERICENTER":162.4192,"MEAN_ANOMALY":197.729,"EPHEMERIS_TYPE":0,"CLASSIFICATION_TYPE":"U","NORAD_CAT_ID":40298,"ELEMENT_SET_NO":999,"REV_AT_EPOCH":62791,"BSTAR":0.00048384,"MEAN_MOTION_DOT":0.00010254,"MEAN_MOTION_DDOT":0},{"OBJECT_NAME":"YAOGAN-24","OBJECT_ID":"2014-072A","EPOCH":"2026-03-03T04:53:27.143232","MEAN_MOTION":14.7621254,"ECCENTRICITY":0.0012079,"INCLINATION":98.1288,"RA_OF_ASC_NODE":198.756,"ARG_OF_PERICENTER":240.9368,"MEAN_ANOMALY":119.0632,"EPHEMERIS_TYPE":0,"CLASSIFICATION_TYPE":"U","NORAD_CAT_ID":40310,"ELEMENT_SET_NO":999,"REV_AT_EPOCH":60808,"BSTAR":0.00018432,"MEAN_MOTION_DOT":1.224e-5,"MEAN_MOTION_DDOT":0},{"OBJECT_NAME":"CBERS 4","OBJECT_ID":"2014-079A","EPOCH":"2026-03-03T03:51:33.926976","MEAN_MOTION":14.35410103,"ECCENTRICITY":8.09e-5,"INCLINATION":98.3503,"RA_OF_ASC_NODE":122.3829,"ARG_OF_PERICENTER":54.2828,"MEAN_ANOMALY":305.8433,"EPHEMERIS_TYPE":0,"CLASSIFICATION_TYPE":"U","NORAD_CAT_ID":40336,"ELEMENT_SET_NO":999,"REV_AT_EPOCH":58874,"BSTAR":2.0465e-6,"MEAN_MOTION_DOT":-3.6e-7,"MEAN_MOTION_DDOT":0},{"OBJECT_NAME":"YAOGAN-26","OBJECT_ID":"2014-088A","EPOCH":"2026-03-03T04:30:32.558112","MEAN_MOTION":15.4285892,"ECCENTRICITY":0.0007353,"INCLINATION":97.066,"RA_OF_ASC_NODE":65.2056,"ARG_OF_PERICENTER":80.4025,"MEAN_ANOMALY":279.8053,"EPHEMERIS_TYPE":0,"CLASSIFICATION_TYPE":"U","NORAD_CAT_ID":40362,"ELEMENT_SET_NO":999,"REV_AT_EPOCH":62133,"BSTAR":0.0007702,"MEAN_MOTION_DOT":0.00033833,"MEAN_MOTION_DDOT":0},{"OBJECT_NAME":"SMAP","OBJECT_ID":"2015-003A","EPOCH":"2026-03-03T03:57:58.078656","MEAN_MOTION":14.63328625,"ECCENTRICITY":0.0001218,"INCLINATION":98.131,"RA_OF_ASC_NODE":70.7452,"ARG_OF_PERICENTER":112.8294,"MEAN_ANOMALY":247.3037,"EPHEMERIS_TYPE":0,"CLASSIFICATION_TYPE":"U","NORAD_CAT_ID":40376,"ELEMENT_SET_NO":999,"REV_AT_EPOCH":59211,"BSTAR":0.00013796,"MEAN_MOTION_DOT":6.65e-6,"MEAN_MOTION_DDOT":0},{"OBJECT_NAME":"KOMPSAT-3A","OBJECT_ID":"2015-014A","EPOCH":"2026-03-03T04:43:35.781888","MEAN_MOTION":15.48337677,"ECCENTRICITY":0.0062837,"INCLINATION":97.686,"RA_OF_ASC_NODE":46.2802,"ARG_OF_PERICENTER":201.1013,"MEAN_ANOMALY":158.7643,"EPHEMERIS_TYPE":0,"CLASSIFICATION_TYPE":"U","NORAD_CAT_ID":40536,"ELEMENT_SET_NO":999,"REV_AT_EPOCH":60538,"BSTAR":0.00044927,"MEAN_MOTION_DOT":0.00025651,"MEAN_MOTION_DDOT":0},{"OBJECT_NAME":"SENTINEL-2A","OBJECT_ID":"2015-028A","EPOCH":"2026-02-25T04:19:12.423360","MEAN_MOTION":14.30192923,"ECCENTRICITY":0.00543683,"INCLINATION":98.5024,"RA_OF_ASC_NODE":132.8928,"ARG_OF_PERICENTER":194.7437,"MEAN_ANOMALY":165.2162,"EPHEMERIS_TYPE":0,"CLASSIFICATION_TYPE":"U","NORAD_CAT_ID":40697,"ELEMENT_SET_NO":999,"REV_AT_EPOCH":55771,"BSTAR":7.6852184e-5,"MEAN_MOTION_DOT":1.59e-6,"MEAN_MOTION_DDOT":0},{"OBJECT_NAME":"GAOFEN-8","OBJECT_ID":"2015-030A","EPOCH":"2026-03-03T04:40:26.049216","MEAN_MOTION":15.42116337,"ECCENTRICITY":0.0009303,"INCLINATION":97.6923,"RA_OF_ASC_NODE":249.4823,"ARG_OF_PERICENTER":211.6957,"MEAN_ANOMALY":148.373,"EPHEMERIS_TYPE":0,"CLASSIFICATION_TYPE":"U","NORAD_CAT_ID":40701,"ELEMENT_SET_NO":999,"REV_AT_EPOCH":59509,"BSTAR":0.0002857,"MEAN_MOTION_DOT":0.00012154,"MEAN_MOTION_DDOT":0},{"OBJECT_NAME":"CARBONITE 1 (CBNT-1)","OBJECT_ID":"2015-032D","EPOCH":"2026-03-03T03:28:52.023648","MEAN_MOTION":14.83178887,"ECCENTRICITY":0.0013242,"INCLINATION":97.645,"RA_OF_ASC_NODE":244.6939,"ARG_OF_PERICENTER":284.4089,"MEAN_ANOMALY":75.5655,"EPHEMERIS_TYPE":0,"CLASSIFICATION_TYPE":"U","NORAD_CAT_ID":40718,"ELEMENT_SET_NO":999,"REV_AT_EPOCH":57362,"BSTAR":0.00016014,"MEAN_MOTION_DOT":1.258e-5,"MEAN_MOTION_DDOT":0},{"OBJECT_NAME":"YAOGAN-27","OBJECT_ID":"2015-040A","EPOCH":"2026-03-03T04:58:45.834816","MEAN_MOTION":13.16063938,"ECCENTRICITY":0.0008867,"INCLINATION":100.109,"RA_OF_ASC_NODE":53.2203,"ARG_OF_PERICENTER":97.8918,"MEAN_ANOMALY":262.3202,"EPHEMERIS_TYPE":0,"CLASSIFICATION_TYPE":"U","NORAD_CAT_ID":40878,"ELEMENT_SET_NO":999,"REV_AT_EPOCH":50372,"BSTAR":-0.00069429,"MEAN_MOTION_DOT":-3.06e-6,"MEAN_MOTION_DDOT":0},{"OBJECT_NAME":"GAOFEN-9 01","OBJECT_ID":"2015-047A","EPOCH":"2026-03-03T04:23:19.093632","MEAN_MOTION":14.82661387,"ECCENTRICITY":0.0028684,"INCLINATION":97.6427,"RA_OF_ASC_NODE":102.6334,"ARG_OF_PERICENTER":126.2153,"MEAN_ANOMALY":234.1719,"EPHEMERIS_TYPE":0,"CLASSIFICATION_TYPE":"U","NORAD_CAT_ID":40894,"ELEMENT_SET_NO":999,"REV_AT_EPOCH":56448,"BSTAR":0.00016513,"MEAN_MOTION_DOT":1.289e-5,"MEAN_MOTION_DDOT":0},{"OBJECT_NAME":"YAOGAN-28","OBJECT_ID":"2015-064A","EPOCH":"2026-03-03T05:00:57.263904","MEAN_MOTION":15.25862958,"ECCENTRICITY":0.0010715,"INCLINATION":97.2887,"RA_OF_ASC_NODE":202.8522,"ARG_OF_PERICENTER":199.5986,"MEAN_ANOMALY":160.4843,"EPHEMERIS_TYPE":0,"CLASSIFICATION_TYPE":"U","NORAD_CAT_ID":41026,"ELEMENT_SET_NO":999,"REV_AT_EPOCH":57451,"BSTAR":0.00044896,"MEAN_MOTION_DOT":0.0001145,"MEAN_MOTION_DDOT":0},{"OBJECT_NAME":"YAOGAN-29","OBJECT_ID":"2015-069A","EPOCH":"2026-03-03T04:22:21.229824","MEAN_MOTION":14.82988877,"ECCENTRICITY":0.0002287,"INCLINATION":98.0153,"RA_OF_ASC_NODE":90.5944,"ARG_OF_PERICENTER":48.0257,"MEAN_ANOMALY":312.1151,"EPHEMERIS_TYPE":0,"CLASSIFICATION_TYPE":"U","NORAD_CAT_ID":41038,"ELEMENT_SET_NO":999,"REV_AT_EPOCH":55491,"BSTAR":0.00013621,"MEAN_MOTION_DOT":1.052e-5,"MEAN_MOTION_DDOT":0}]
